[{"OBJECT_NAME":"STARLINK-36399","OBJECT_ID":"2026-022T","EPOCH":"2026-03-03T18:00:01.999296","MEAN_MOTION":15.75222301,"ECCENTRICITY":0.0001437,"INCLINATION":97.2839,"RA_OF_ASC_NODE":96.4676,"ARG_OF_PERICENTER":103.8305,"MEAN_ANOMALY":344.2488,"EPHEMERIS_TYPE":0,"CLASSIFICATION_TYPE":"U","NORAD_CAT_ID":67665,"ELEMENT_SET_NO":999,"REV_AT_EPOCH":591,"BSTAR":-0.00043878,"MEAN_MOTION_DOT":-0.00065172,"MEAN_MOTION_DDOT":0},{"OBJECT_NAME":"STARLINK-36365","OBJECT_ID":"2026-022U","EPOCH":"2026-03-03T14:32:41.447328","MEAN_MOTION":15.75194605,"ECCENTRICITY":0.0001319,"INCLINATION":97.2838,"RA_OF_ASC_NODE":96.3185,"ARG_OF_PERICENTER":86.3679,"MEAN_ANOMALY":273.7737,"EPHEMERIS_TYPE":0,"CLASSIFICATION_TYPE":"U","NORAD_CAT_ID":67666,"ELEMENT_SET_NO":999,"REV_AT_EPOCH":459,"BSTAR":0.0017618,"MEAN_MOTION_DOT":0.00271236,"MEAN_MOTION_DDOT":0},{"OBJECT_NAME":"STARLINK-36622","OBJECT_ID":"2026-022V","EPOCH":"2026-03-03T14:30:09.005760","MEAN_MOTION":15.75206769,"ECCENTRICITY":0.0001423,"INCLINATION":97.2843,"RA_OF_ASC_NODE":96.321,"ARG_OF_PERICENTER":102.802,"MEAN_ANOMALY":257.3405,"EPHEMERIS_TYPE":0,"CLASSIFICATION_TYPE":"U","NORAD_CAT_ID":67667,"ELEMENT_SET_NO":999,"REV_AT_EPOCH":459,"BSTAR":0.0019688,"MEAN_MOTION_DOT":0.00304475,"MEAN_MOTION_DDOT":0},{"OBJECT_NAME":"STARLINK-36625","OBJECT_ID":"2026-022W","EPOCH":"2026-03-03T14:28:07.464288","MEAN_MOTION":15.75412183,"ECCENTRICITY":0.0001521,"INCLINATION":97.2833,"RA_OF_ASC_NODE":96.322,"ARG_OF_PERICENTER":58.9947,"MEAN_ANOMALY":301.1468,"EPHEMERIS_TYPE":0,"CLASSIFICATION_TYPE":"U","NORAD_CAT_ID":67668,"ELEMENT_SET_NO":999,"REV_AT_EPOCH":459,"BSTAR":0.002941,"MEAN_MOTION_DOT":0.00467932,"MEAN_MOTION_DDOT":0},{"OBJECT_NAME":"STARLINK-36639","OBJECT_ID":"2026-022X","EPOCH":"2026-03-03T14:25:34.700448","MEAN_MOTION":15.75201797,"ECCENTRICITY":0.0001769,"INCLINATION":97.2843,"RA_OF_ASC_NODE":96.325,"ARG_OF_PERICENTER":76.2102,"MEAN_ANOMALY":283.936,"EPHEMERIS_TYPE":0,"CLASSIFICATION_TYPE":"U","NORAD_CAT_ID":67669,"ELEMENT_SET_NO":999,"REV_AT_EPOCH":459,"BSTAR":0.0018084,"MEAN_MOTION_DOT":0.00278738,"MEAN_MOTION_DDOT":0},{"OBJECT_NAME":"STARLINK-36596","OBJECT_ID":"2026-022Y","EPOCH":"2026-03-03T14:23:02.150016","MEAN_MOTION":15.7521989,"ECCENTRICITY":0.0001647,"INCLINATION":97.2827,"RA_OF_ASC_NODE":96.3265,"ARG_OF_PERICENTER":73.6606,"MEAN_ANOMALY":286.484,"EPHEMERIS_TYPE":0,"CLASSIFICATION_TYPE":"U","NORAD_CAT_ID":67670,"ELEMENT_SET_NO":999,"REV_AT_EPOCH":459,"BSTAR":0.0019792,"MEAN_MOTION_DOT":0.00306317,"MEAN_MOTION_DDOT":0},{"OBJECT_NAME":"STARLINK-36297","OBJECT_ID":"2026-022Z","EPOCH":"2026-03-03T15:51:28.063872","MEAN_MOTION":15.75209651,"ECCENTRICITY":0.0001566,"INCLINATION":97.2837,"RA_OF_ASC_NODE":96.397,"ARG_OF_PERICENTER":70.781,"MEAN_ANOMALY":289.3625,"EPHEMERIS_TYPE":0,"CLASSIFICATION_TYPE":"U","NORAD_CAT_ID":67671,"ELEMENT_SET_NO":999,"REV_AT_EPOCH":460,"BSTAR":0.0015731,"MEAN_MOTION_DOT":0.0024147,"MEAN_MOTION_DDOT":0},{"OBJECT_NAME":"STARLINK-36616","OBJECT_ID":"2026-022AA","EPOCH":"2026-03-03T14:22:01.651872","MEAN_MOTION":15.75396764,"ECCENTRICITY":0.0001725,"INCLINATION":97.2841,"RA_OF_ASC_NODE":96.3274,"ARG_OF_PERICENTER":59.0649,"MEAN_ANOMALY":301.0785,"EPHEMERIS_TYPE":0,"CLASSIFICATION_TYPE":"U","NORAD_CAT_ID":67672,"ELEMENT_SET_NO":999,"REV_AT_EPOCH":459,"BSTAR":0.0028698,"MEAN_MOTION_DOT":0.00455625,"MEAN_MOTION_DDOT":0},{"OBJECT_NAME":"COSMOS 2600","OBJECT_ID":"2026-023A","EPOCH":"2026-03-03T18:32:20.208768","MEAN_MOTION":15.83044619,"ECCENTRICITY":0.0002446,"INCLINATION":96.6446,"RA_OF_ASC_NODE":138.6024,"ARG_OF_PERICENTER":359.1574,"MEAN_ANOMALY":0.9693,"EPHEMERIS_TYPE":0,"CLASSIFICATION_TYPE":"U","NORAD_CAT_ID":67674,"ELEMENT_SET_NO":999,"REV_AT_EPOCH":411,"BSTAR":0.0004113,"MEAN_MOTION_DOT":0.00088065,"MEAN_MOTION_DDOT":0},{"OBJECT_NAME":"2026-023B","OBJECT_ID":"2026-023B","EPOCH":"2026-03-03T19:21:35.995104","MEAN_MOTION":15.22827574,"ECCENTRICITY":0.0019165,"INCLINATION":96.6371,"RA_OF_ASC_NODE":136.4361,"ARG_OF_PERICENTER":151.9701,"MEAN_ANOMALY":208.2574,"EPHEMERIS_TYPE":0,"CLASSIFICATION_TYPE":"U","NORAD_CAT_ID":67675,"ELEMENT_SET_NO":999,"REV_AT_EPOCH":396,"BSTAR":0.00065673,"MEAN_MOTION_DOT":0.00015399,"MEAN_MOTION_DDOT":0},{"OBJECT_NAME":"2026-023C","OBJECT_ID":"2026-023C","EPOCH":"2026-03-03T20:54:22.443840","MEAN_MOTION":15.22930458,"ECCENTRICITY":0.0020232,"INCLINATION":96.6405,"RA_OF_ASC_NODE":136.5157,"ARG_OF_PERICENTER":142.1294,"MEAN_ANOMALY":218.1373,"EPHEMERIS_TYPE":0,"CLASSIFICATION_TYPE":"U","NORAD_CAT_ID":67676,"ELEMENT_SET_NO":999,"REV_AT_EPOCH":413,"BSTAR":0.00058491,"MEAN_MOTION_DOT":0.00013756,"MEAN_MOTION_DDOT":0},{"OBJECT_NAME":"2026-023D","OBJECT_ID":"2026-023D","EPOCH":"2026-03-03T20:57:51.111072","MEAN_MOTION":15.22751681,"ECCENTRICITY":0.0020433,"INCLINATION":96.6435,"RA_OF_ASC_NODE":136.5041,"ARG_OF_PERICENTER":146.9946,"MEAN_ANOMALY":213.2573,"EPHEMERIS_TYPE":0,"CLASSIFICATION_TYPE":"U","NORAD_CAT_ID":67677,"ELEMENT_SET_NO":999,"REV_AT_EPOCH":396,"BSTAR":0.0006681,"MEAN_MOTION_DOT":0.00015643,"MEAN_MOTION_DDOT":0},{"OBJECT_NAME":"2026-023E","OBJECT_ID":"2026-023E","EPOCH":"2026-03-03T20:55:00.243840","MEAN_MOTION":15.22919093,"ECCENTRICITY":0.00202,"INCLINATION":96.6328,"RA_OF_ASC_NODE":136.4855,"ARG_OF_PERICENTER":146.4309,"MEAN_ANOMALY":213.8214,"EPHEMERIS_TYPE":0,"CLASSIFICATION_TYPE":"U","NORAD_CAT_ID":67678,"ELEMENT_SET_NO":999,"REV_AT_EPOCH":396,"BSTAR":0.00079138,"MEAN_MOTION_DOT":0.00018637,"MEAN_MOTION_DDOT":0},{"OBJECT_NAME":"2026-023F","OBJECT_ID":"2026-023F","EPOCH":"2026-03-03T20:51:29.350944","MEAN_MOTION":15.23069349,"ECCENTRICITY":0.0022107,"INCLINATION":96.6338,"RA_OF_ASC_NODE":138.9859,"ARG_OF_PERICENTER":141.3033,"MEAN_ANOMALY":218.9794,"EPHEMERIS_TYPE":0,"CLASSIFICATION_TYPE":"U","NORAD_CAT_ID":67679,"ELEMENT_SET_NO":999,"REV_AT_EPOCH":395,"BSTAR":0.00075284,"MEAN_MOTION_DOT":0.00017824,"MEAN_MOTION_DDOT":0},{"OBJECT_NAME":"2026-023G","OBJECT_ID":"2026-023G","EPOCH":"2026-03-03T20:52:28.606656","MEAN_MOTION":15.23030663,"ECCENTRICITY":0.0023639,"INCLINATION":96.6265,"RA_OF_ASC_NODE":138.9688,"ARG_OF_PERICENTER":137.8674,"MEAN_ANOMALY":222.4388,"EPHEMERIS_TYPE":0,"CLASSIFICATION_TYPE":"U","NORAD_CAT_ID":67680,"ELEMENT_SET_NO":999,"REV_AT_EPOCH":395,"BSTAR":0.00077648,"MEAN_MOTION_DOT":0.00018384,"MEAN_MOTION_DDOT":0},{"OBJECT_NAME":"2026-023H","OBJECT_ID":"2026-023H","EPOCH":"2026-03-03T20:52:36.037056","MEAN_MOTION":15.22965852,"ECCENTRICITY":0.0023732,"INCLINATION":96.6411,"RA_OF_ASC_NODE":138.9986,"ARG_OF_PERICENTER":137.2758,"MEAN_ANOMALY":223.0331,"EPHEMERIS_TYPE":0,"CLASSIFICATION_TYPE":"U","NORAD_CAT_ID":67681,"ELEMENT_SET_NO":999,"REV_AT_EPOCH":395,"BSTAR":0.00065495,"MEAN_MOTION_DOT":0.00015462,"MEAN_MOTION_DDOT":0},{"OBJECT_NAME":"2026-023J","OBJECT_ID":"2026-023J","EPOCH":"2026-03-03T20:51:00.565056","MEAN_MOTION":15.23064736,"ECCENTRICITY":0.0023857,"INCLINATION":96.6365,"RA_OF_ASC_NODE":139.0033,"ARG_OF_PERICENTER":134.1599,"MEAN_ANOMALY":226.1607,"EPHEMERIS_TYPE":0,"CLASSIFICATION_TYPE":"U","NORAD_CAT_ID":67682,"ELEMENT_SET_NO":999,"REV_AT_EPOCH":395,"BSTAR":0.00078532,"MEAN_MOTION_DOT":0.00018616,"MEAN_MOTION_DDOT":0}]
