STARLINK-36399          
1 67665U 26022T   26062.75002314 -.00065172  00000+0 -43878-3 0  9995
2 67665  97.2839  96.4676 0001437 103.8305 344.2488 15.75222301  5919
STARLINK-36365          
1 67666U 26022U   26062.60603527  .00271236  00000+0  17618-2 0  9993
2 67666  97.2838  96.3185 0001319  86.3679 273.7737 15.75194605  4592
STARLINK-36622          
1 67667U 26022V   26062.60427090  .00304475  00000+0  19688-2 0  9994
2 67667  97.2843  96.3210 0001423 102.8020 257.3405 15.75206769  4593
STARLINK-36625          
1 67668U 26022W   26062.60286417  .00467932  00000+0  29410-2 0  9993
2 67668  97.2833  96.3220 0001521  58.9947 301.1468 15.75412183  4598
STARLINK-36639          
1 67669U 26022X   26062.60109607  .00278738  00000+0  18084-2 0  9998
2 67669  97.2843  96.3250 0001769  76.2102 283.9360 15.75201797  4598
STARLINK-36596          
1 67670U 26022Y   26062.59933044  .00306317  00000+0  19792-2 0  9990
2 67670  97.2827  96.3265 0001647  73.6606 286.4840 15.75219890  4597
STARLINK-36297          
1 67671U 26022Z   26062.66074148  .00241470  00000+0  15731-2 0  9997
2 67671  97.2837  96.3970 0001566  70.7810 289.3625 15.75209651  4606
STARLINK-36616          
1 67672U 26022AA  26062.59863023  .00455625  00000+0  28698-2 0  9993
2 67672  97.2841  96.3274 0001725  59.0649 301.0785 15.75396764  4595
COSMOS 2600             
1 67674U 26023A   26062.77245612  .00088065  00000+0  41130-3 0  9991
2 67674  96.6446 138.6024 0002446 359.1574   0.9693 15.83044619  4115
2026-023B               
1 67675U 26023B   26062.80666661  .00015399  00000+0  65673-3 0  9995
2 67675  96.6371 136.4361 0019165 151.9701 208.2574 15.22827574  3964
2026-023C               
1 67676U 26023C   26062.87109310  .00013756  00000+0  58491-3 0  9991
2 67676  96.6405 136.5157 0020232 142.1294 218.1373 15.22930458  4136
2026-023D               
1 67677U 26023D   26062.87350823  .00015643  00000+0  66810-3 0  9990
2 67677  96.6435 136.5041 0020433 146.9946 213.2573 15.22751681  3968
2026-023E               
1 67678U 26023E   26062.87153060  .00018637  00000+0  79138-3 0  9998
2 67678  96.6328 136.4855 0020200 146.4309 213.8214 15.22919093  3963
2026-023F               
1 67679U 26023F   26062.86908971  .00017824  00000+0  75284-3 0  9992
2 67679  96.6338 138.9859 0022107 141.3033 218.9794 15.23069349  3951
2026-023G               
1 67680U 26023G   26062.86977554  .00018384  00000+0  77648-3 0  9995
2 67680  96.6265 138.9688 0023639 137.8674 222.4388 15.23030663  3950
2026-023H               
1 67681U 26023H   26062.86986154  .00015462  00000+0  65495-3 0  9993
2 67681  96.6411 138.9986 0023732 137.2758 223.0331 15.22965852  3957
2026-023J               
1 67682U 26023J   26062.86875654  .00018616  00000+0  78532-3 0  9996
2 67682  96.6365 139.0033 0023857 134.1599 226.1607 15.23064736  3950
